UNKNOWN                 
1 81617U          26045.27298741  .00000376  00000+0  24845-2 0  9990
2 81617 101.2647 221.9662 0033698 120.7507 239.6894 12.57587515561093
UNKNOWN                 
1 81624U          26047.22729119  .00006032  00000+0  94278-3 0  9996
2 81624  66.9773 345.8344 0064647 185.4038 174.6395 14.72070319649343
UNKNOWN                 
1 81640U          26047.32451401  .00000639  00000+0  63976-3 0  9999
2 81640  65.8288 357.8520 0978041  50.8640 317.5253 12.57272968518324
UNKNOWN                 
1 81652U          26048.22340970  .00000322  00000+0  44226-3 0  9996
2 81652 102.1463 315.5081 0363774 211.2586 304.5102 13.44484107587583
UNKNOWN                 
1 81667U          26048.59695705  .00001772  00000+0  47943-3 0  9990
2 81667  74.0418 271.4116 0015586 189.4138 170.6731 14.48414349466323
UNKNOWN                 
1 81674U          26035.53700502  .00000896  00000+0  55035-3 0  9997
2 81674  66.8209 228.7911 0026829 195.9151 195.3195 14.10064697621300
UNKNOWN                 
1 81683U          26048.46974127  .00003889  00000+0  84223-3 0  9995
2 81683  81.2128 224.9688 0023968  93.4686 266.9253 14.57888339645580
UNKNOWN                 
1 81693U          26033.60328402  .00000950  00000+0  71303-2 0  9995
2 81693 101.0975  94.3495 0365424 344.6978  14.3266 12.25967259974124
UNKNOWN                 
1 81745U          26039.28286455  .00002174  00000+0  69616-3 0  9999
2 81745  70.9995 261.5394 0003672 149.7279 210.4070 14.40678835638033
UNKNOWN                 
1 81775U          26048.30728035  .00007430  00000+0  22586-2 0  9994
2 81775  82.9219 169.0781 0014105  46.0048 314.2305 14.41962999634865
UNKNOWN                 
1 81779U          26048.48022310 -.00007518  00000+0 -47026+0 0  9992
2 81779  54.5009 109.6571 1483683 112.7010 263.7132  9.33904025486558
UNKNOWN                 
1 81792U          26036.12073478  .00002293  00000+0  82072-3 0  9993
2 81792  65.8323 333.6358 0895407 258.4387  91.4916 13.11228588 87168
