CCSDS_OMM_VERS = 2.0
CREATION_DATE  = 
ORIGINATOR     = 

OBJECT_NAME    = UNKNOWN
OBJECT_ID      = 
CENTER_NAME    = EARTH
REF_FRAME      = TEME
TIME_SYSTEM    = UTC
MEAN_ELEMENT_THEORY = SGP/SGP4

EPOCH          = 2026-02-14T06:33:06.112224
MEAN_MOTION    = 12.57587515
ECCENTRICITY   = .0033698
INCLINATION    = 101.2647
RA_OF_ASC_NODE = 221.9662
ARG_OF_PERICENTER = 120.7507
MEAN_ANOMALY   = 239.6894

EPHEMERIS_TYPE = 0
CLASSIFICATION_TYPE = U
NORAD_CAT_ID   = 81617
ELEMENT_SET_NO = 999
REV_AT_EPOCH   = 56109
BSTAR          = .24845E-2
MEAN_MOTION_DOT = .376E-5
MEAN_MOTION_DDOT = 0

CCSDS_OMM_VERS = 2.0
CREATION_DATE  = 
ORIGINATOR     = 

OBJECT_NAME    = UNKNOWN
OBJECT_ID      = 
CENTER_NAME    = EARTH
REF_FRAME      = TEME
TIME_SYSTEM    = UTC
MEAN_ELEMENT_THEORY = SGP/SGP4

EPOCH          = 2026-02-16T05:27:17.958816
MEAN_MOTION    = 14.72070319
ECCENTRICITY   = .0064647
INCLINATION    = 66.9773
RA_OF_ASC_NODE = 345.8344
ARG_OF_PERICENTER = 185.4038
MEAN_ANOMALY   = 174.6395

EPHEMERIS_TYPE = 0
CLASSIFICATION_TYPE = U
NORAD_CAT_ID   = 81624
ELEMENT_SET_NO = 999
REV_AT_EPOCH   = 64934
BSTAR          = .94278E-3
MEAN_MOTION_DOT = .6032E-4
MEAN_MOTION_DDOT = 0

CCSDS_OMM_VERS = 2.0
CREATION_DATE  = 
ORIGINATOR     = 

OBJECT_NAME    = UNKNOWN
OBJECT_ID      = 
CENTER_NAME    = EARTH
REF_FRAME      = TEME
TIME_SYSTEM    = UTC
MEAN_ELEMENT_THEORY = SGP/SGP4

EPOCH          = 2026-02-16T07:47:18.010464
MEAN_MOTION    = 12.57272968
ECCENTRICITY   = .0978041
INCLINATION    = 65.8288
RA_OF_ASC_NODE = 357.8520
ARG_OF_PERICENTER = 50.8640
MEAN_ANOMALY   = 317.5253

EPHEMERIS_TYPE = 0
CLASSIFICATION_TYPE = U
NORAD_CAT_ID   = 81640
ELEMENT_SET_NO = 999
REV_AT_EPOCH   = 51832
BSTAR          = .63976E-3
MEAN_MOTION_DOT = .639E-5
MEAN_MOTION_DDOT = 0

CCSDS_OMM_VERS = 2.0
CREATION_DATE  = 
ORIGINATOR     = 

OBJECT_NAME    = UNKNOWN
OBJECT_ID      = 
CENTER_NAME    = EARTH
REF_FRAME      = TEME
TIME_SYSTEM    = UTC
MEAN_ELEMENT_THEORY = SGP/SGP4

EPOCH          = 2026-02-17T05:21:42.598080
MEAN_MOTION    = 13.44484107
ECCENTRICITY   = .0363774
INCLINATION    = 102.1463
RA_OF_ASC_NODE = 315.5081
ARG_OF_PERICENTER = 211.2586
MEAN_ANOMALY   = 304.5102

EPHEMERIS_TYPE = 0
CLASSIFICATION_TYPE = U
NORAD_CAT_ID   = 81652
ELEMENT_SET_NO = 999
REV_AT_EPOCH   = 58758
BSTAR          = .44226E-3
MEAN_MOTION_DOT = .322E-5
MEAN_MOTION_DDOT = 0

CCSDS_OMM_VERS = 2.0
CREATION_DATE  = 
ORIGINATOR     = 

OBJECT_NAME    = UNKNOWN
OBJECT_ID      = 
CENTER_NAME    = EARTH
REF_FRAME      = TEME
TIME_SYSTEM    = UTC
MEAN_ELEMENT_THEORY = SGP/SGP4

EPOCH          = 2026-02-17T14:19:37.089120
MEAN_MOTION    = 14.48414349
ECCENTRICITY   = .0015586
INCLINATION    = 74.0418
RA_OF_ASC_NODE = 271.4116
ARG_OF_PERICENTER = 189.4138
MEAN_ANOMALY   = 170.6731

EPHEMERIS_TYPE = 0
CLASSIFICATION_TYPE = U
NORAD_CAT_ID   = 81667
ELEMENT_SET_NO = 999
REV_AT_EPOCH   = 46632
BSTAR          = .47943E-3
MEAN_MOTION_DOT = .1772E-4
MEAN_MOTION_DDOT = 0

CCSDS_OMM_VERS = 2.0
CREATION_DATE  = 
ORIGINATOR     = 

OBJECT_NAME    = UNKNOWN
OBJECT_ID      = 
CENTER_NAME    = EARTH
REF_FRAME      = TEME
TIME_SYSTEM    = UTC
MEAN_ELEMENT_THEORY = SGP/SGP4

EPOCH          = 2026-02-04T12:53:17.233728
MEAN_MOTION    = 14.10064697
ECCENTRICITY   = .0026829
INCLINATION    = 66.8209
RA_OF_ASC_NODE = 228.7911
ARG_OF_PERICENTER = 195.9151
MEAN_ANOMALY   = 195.3195

EPHEMERIS_TYPE = 0
CLASSIFICATION_TYPE = U
NORAD_CAT_ID   = 81674
ELEMENT_SET_NO = 999
REV_AT_EPOCH   = 62130
BSTAR          = .55035E-3
MEAN_MOTION_DOT = .896E-5
MEAN_MOTION_DDOT = 0

CCSDS_OMM_VERS = 2.0
CREATION_DATE  = 
ORIGINATOR     = 

OBJECT_NAME    = UNKNOWN
OBJECT_ID      = 
CENTER_NAME    = EARTH
REF_FRAME      = TEME
TIME_SYSTEM    = UTC
MEAN_ELEMENT_THEORY = SGP/SGP4

EPOCH          = 2026-02-17T11:16:25.645728
MEAN_MOTION    = 14.57888339
ECCENTRICITY   = .0023968
INCLINATION    = 81.2128
RA_OF_ASC_NODE = 224.9688
ARG_OF_PERICENTER = 93.4686
MEAN_ANOMALY   = 266.9253

EPHEMERIS_TYPE = 0
CLASSIFICATION_TYPE = U
NORAD_CAT_ID   = 81683
ELEMENT_SET_NO = 999
REV_AT_EPOCH   = 64558
BSTAR          = .84223E-3
MEAN_MOTION_DOT = .3889E-4
MEAN_MOTION_DDOT = 0

CCSDS_OMM_VERS = 2.0
CREATION_DATE  = 
ORIGINATOR     = 

OBJECT_NAME    = UNKNOWN
OBJECT_ID      = 
CENTER_NAME    = EARTH
REF_FRAME      = TEME
TIME_SYSTEM    = UTC
MEAN_ELEMENT_THEORY = SGP/SGP4

EPOCH          = 2026-02-02T14:28:43.739328
MEAN_MOTION    = 12.25967259
ECCENTRICITY   = .0365424
INCLINATION    = 101.0975
RA_OF_ASC_NODE = 94.3495
ARG_OF_PERICENTER = 344.6978
MEAN_ANOMALY   = 14.3266

EPHEMERIS_TYPE = 0
CLASSIFICATION_TYPE = U
NORAD_CAT_ID   = 81693
ELEMENT_SET_NO = 999
REV_AT_EPOCH   = 97412
BSTAR          = .71303E-2
MEAN_MOTION_DOT = .95E-5
MEAN_MOTION_DDOT = 0

CCSDS_OMM_VERS = 2.0
CREATION_DATE  = 
ORIGINATOR     = 

OBJECT_NAME    = UNKNOWN
OBJECT_ID      = 
CENTER_NAME    = EARTH
REF_FRAME      = TEME
TIME_SYSTEM    = UTC
MEAN_ELEMENT_THEORY = SGP/SGP4

EPOCH          = 2026-02-08T06:47:19.497120
MEAN_MOTION    = 14.40678835
ECCENTRICITY   = .0003672
INCLINATION    = 70.9995
RA_OF_ASC_NODE = 261.5394
ARG_OF_PERICENTER = 149.7279
MEAN_ANOMALY   = 210.4070

EPHEMERIS_TYPE = 0
CLASSIFICATION_TYPE = U
NORAD_CAT_ID   = 81745
ELEMENT_SET_NO = 999
REV_AT_EPOCH   = 63803
BSTAR          = .69616E-3
MEAN_MOTION_DOT = .2174E-4
MEAN_MOTION_DDOT = 0

CCSDS_OMM_VERS = 2.0
CREATION_DATE  = 
ORIGINATOR     = 

OBJECT_NAME    = UNKNOWN
OBJECT_ID      = 
CENTER_NAME    = EARTH
REF_FRAME      = TEME
TIME_SYSTEM    = UTC
MEAN_ELEMENT_THEORY = SGP/SGP4

EPOCH          = 2026-02-17T07:22:29.022240
MEAN_MOTION    = 14.41962999
ECCENTRICITY   = .0014105
INCLINATION    = 82.9219
RA_OF_ASC_NODE = 169.0781
ARG_OF_PERICENTER = 46.0048
MEAN_ANOMALY   = 314.2305

EPHEMERIS_TYPE = 0
CLASSIFICATION_TYPE = U
NORAD_CAT_ID   = 81775
ELEMENT_SET_NO = 999
REV_AT_EPOCH   = 63486
BSTAR          = .22586E-2
MEAN_MOTION_DOT = .743E-4
MEAN_MOTION_DDOT = 0

CCSDS_OMM_VERS = 2.0
CREATION_DATE  = 
ORIGINATOR     = 

OBJECT_NAME    = UNKNOWN
OBJECT_ID      = 
CENTER_NAME    = EARTH
REF_FRAME      = TEME
TIME_SYSTEM    = UTC
MEAN_ELEMENT_THEORY = SGP/SGP4

EPOCH          = 2026-02-17T11:31:31.275840
MEAN_MOTION    = 9.33904025
ECCENTRICITY   = .1483683
INCLINATION    = 54.5009
RA_OF_ASC_NODE = 109.6571
ARG_OF_PERICENTER = 112.7010
MEAN_ANOMALY   = 263.7132

EPHEMERIS_TYPE = 0
CLASSIFICATION_TYPE = U
NORAD_CAT_ID   = 81779
ELEMENT_SET_NO = 999
REV_AT_EPOCH   = 48655
BSTAR          = -.47026E+0
MEAN_MOTION_DOT = -.7518E-4
MEAN_MOTION_DDOT = 0

CCSDS_OMM_VERS = 2.0
CREATION_DATE  = 
ORIGINATOR     = 

OBJECT_NAME    = UNKNOWN
OBJECT_ID      = 
CENTER_NAME    = EARTH
REF_FRAME      = TEME
TIME_SYSTEM    = UTC
MEAN_ELEMENT_THEORY = SGP/SGP4

EPOCH          = 2026-02-05T02:53:51.484992
MEAN_MOTION    = 13.11228588
ECCENTRICITY   = .0895407
INCLINATION    = 65.8323
RA_OF_ASC_NODE = 333.6358
ARG_OF_PERICENTER = 258.4387
MEAN_ANOMALY   = 91.4916

EPHEMERIS_TYPE = 0
CLASSIFICATION_TYPE = U
NORAD_CAT_ID   = 81792
ELEMENT_SET_NO = 999
REV_AT_EPOCH   = 8716
BSTAR          = .82072E-3
MEAN_MOTION_DOT = .2293E-4
MEAN_MOTION_DDOT = 0

